[{"OBJECT_NAME":"STARLINK-5275","OBJECT_ID":"2023-014H","EPOCH":"2025-08-20T06:09:49.395744","MEAN_MOTION":14.98337063,"ECCENTRICITY":0.0003443,"INCLINATION":69.9993,"RA_OF_ASC_NODE":212.3021,"ARG_OF_PERICENTER":270.5339,"MEAN_ANOMALY":89.5425,"EPHEMERIS_TYPE":0,"CLASSIFICATION_TYPE":"U","NORAD_CAT_ID":55398,"ELEMENT_SET_NO":999,"REV_AT_EPOCH":14094,"BSTAR":-1.0929e-5,"MEAN_MOTION_DOT":-2.24e-6,"MEAN_MOTION_DDOT":0},{"OBJECT_NAME":"STARLINK-5276","OBJECT_ID":"2023-014J","EPOCH":"2025-08-20T07:33:55.675008","MEAN_MOTION":14.98338485,"ECCENTRICITY":0.0003405,"INCLINATION":69.9988,"RA_OF_ASC_NODE":212.1045,"ARG_OF_PERICENTER":270.2955,"MEAN_ANOMALY":89.7814,"EPHEMERIS_TYPE":0,"CLASSIFICATION_TYPE":"U","NORAD_CAT_ID":55399,"ELEMENT_SET_NO":999,"REV_AT_EPOCH":14095,"BSTAR":-0.00026872,"MEAN_MOTION_DOT":-3.299e-5,"MEAN_MOTION_DDOT":0},{"OBJECT_NAME":"STARLINK-5632","OBJECT_ID":"2023-014K","EPOCH":"2025-08-20T07:57:58.677696","MEAN_MOTION":14.98330441,"ECCENTRICITY":0.0003616,"INCLINATION":69.9995,"RA_OF_ASC_NODE":212.1579,"ARG_OF_PERICENTER":264.8904,"MEAN_ANOMALY":95.1843,"EPHEMERIS_TYPE":0,"CLASSIFICATION_TYPE":"U","NORAD_CAT_ID":55400,"ELEMENT_SET_NO":999,"REV_AT_EPOCH":14095,"BSTAR":1.9966e-5,"MEAN_MOTION_DOT":1.45e-6,"MEAN_MOTION_DDOT":0},{"OBJECT_NAME":"STARLINK-5076","OBJECT_ID":"2023-014L","EPOCH":"2025-08-20T06:03:49.073184","MEAN_MOTION":14.98327264,"ECCENTRICITY":0.0003494,"INCLINATION":69.9992,"RA_OF_ASC_NODE":212.2883,"ARG_OF_PERICENTER":266.9068,"MEAN_ANOMALY":93.1691,"EPHEMERIS_TYPE":0,"CLASSIFICATION_TYPE":"U","NORAD_CAT_ID":55401,"ELEMENT_SET_NO":999,"REV_AT_EPOCH":14094,"BSTAR":-2.5221e-5,"MEAN_MOTION_DOT":-3.94e-6,"MEAN_MOTION_DDOT":0},{"OBJECT_NAME":"STARLINK-5071","OBJECT_ID":"2023-014M","EPOCH":"2025-08-20T06:33:51.875712","MEAN_MOTION":14.98330956,"ECCENTRICITY":0.0003636,"INCLINATION":69.9994,"RA_OF_ASC_NODE":212.3614,"ARG_OF_PERICENTER":266.5951,"MEAN_ANOMALY":93.4792,"EPHEMERIS_TYPE":0,"CLASSIFICATION_TYPE":"U","NORAD_CAT_ID":55402,"ELEMENT_SET_NO":999,"REV_AT_EPOCH":14094,"BSTAR":1.199e-5,"MEAN_MOTION_DOT":5.0e-7,"MEAN_MOTION_DDOT":0},{"OBJECT_NAME":"STARLINK-5597","OBJECT_ID":"2023-014N","EPOCH":"2025-08-19T09:26:05.231040","MEAN_MOTION":14.9833029,"ECCENTRICITY":0.0003694,"INCLINATION":69.9993,"RA_OF_ASC_NODE":214.5057,"ARG_OF_PERICENTER":268.889,"MEAN_ANOMALY":91.1846,"EPHEMERIS_TYPE":0,"CLASSIFICATION_TYPE":"U","NORAD_CAT_ID":55403,"ELEMENT_SET_NO":999,"REV_AT_EPOCH":14175,"BSTAR":-1.4844e-5,"MEAN_MOTION_DOT":-2.7e-6,"MEAN_MOTION_DDOT":0},{"OBJECT_NAME":"STARLINK-5607","OBJECT_ID":"2023-014P","EPOCH":"2025-08-20T06:45:54.622080","MEAN_MOTION":14.98320693,"ECCENTRICITY":0.0004247,"INCLINATION":69.9988,"RA_OF_ASC_NODE":212.3902,"ARG_OF_PERICENTER":265.0822,"MEAN_ANOMALY":94.9853,"EPHEMERIS_TYPE":0,"CLASSIFICATION_TYPE":"U","NORAD_CAT_ID":55404,"ELEMENT_SET_NO":999,"REV_AT_EPOCH":14094,"BSTAR":0.0001593,"MEAN_MOTION_DOT":1.808e-5,"MEAN_MOTION_DDOT":0},{"OBJECT_NAME":"STARLINK-5623","OBJECT_ID":"2023-014Q","EPOCH":"2025-08-20T06:27:51.131520","MEAN_MOTION":14.98333198,"ECCENTRICITY":0.0003768,"INCLINATION":69.9996,"RA_OF_ASC_NODE":212.3462,"ARG_OF_PERICENTER":267.6911,"MEAN_ANOMALY":92.3816,"EPHEMERIS_TYPE":0,"CLASSIFICATION_TYPE":"U","NORAD_CAT_ID":55405,"ELEMENT_SET_NO":999,"REV_AT_EPOCH":14094,"BSTAR":1.7405e-5,"MEAN_MOTION_DOT":1.15e-6,"MEAN_MOTION_DDOT":0},{"OBJECT_NAME":"STARLINK-5630","OBJECT_ID":"2023-014R","EPOCH":"2025-08-20T06:51:54.626688","MEAN_MOTION":14.98329687,"ECCENTRICITY":0.0003023,"INCLINATION":69.999,"RA_OF_ASC_NODE":212.4056,"ARG_OF_PERICENTER":269.4598,"MEAN_ANOMALY":90.6215,"EPHEMERIS_TYPE":0,"CLASSIFICATION_TYPE":"U","NORAD_CAT_ID":55406,"ELEMENT_SET_NO":999,"REV_AT_EPOCH":14094,"BSTAR":-6.5452e-5,"MEAN_MOTION_DOT":-8.74e-6,"MEAN_MOTION_DDOT":0},{"OBJECT_NAME":"STARLINK-5019","OBJECT_ID":"2023-014S","EPOCH":"2025-08-20T06:39:53.706816","MEAN_MOTION":14.98336619,"ECCENTRICITY":0.0003594,"INCLINATION":69.9994,"RA_OF_ASC_NODE":212.3756,"ARG_OF_PERICENTER":264.5318,"MEAN_ANOMALY":95.5431,"EPHEMERIS_TYPE":0,"CLASSIFICATION_TYPE":"U","NORAD_CAT_ID":55407,"ELEMENT_SET_NO":999,"REV_AT_EPOCH":14094,"BSTAR":7.7285e-5,"MEAN_MOTION_DOT":8.29e-6,"MEAN_MOTION_DDOT":0},{"OBJECT_NAME":"STARLINK-5092","OBJECT_ID":"2023-014T","EPOCH":"2025-08-20T06:57:54.317664","MEAN_MOTION":14.98336951,"ECCENTRICITY":0.0003859,"INCLINATION":69.9992,"RA_OF_ASC_NODE":212.4207,"ARG_OF_PERICENTER":268.8096,"MEAN_ANOMALY":91.2621,"EPHEMERIS_TYPE":0,"CLASSIFICATION_TYPE":"U","NORAD_CAT_ID":55408,"ELEMENT_SET_NO":999,"REV_AT_EPOCH":14094,"BSTAR":-0.00022571,"MEAN_MOTION_DOT":-2.786e-5,"MEAN_MOTION_DDOT":0},{"OBJECT_NAME":"STARLINK-5633","OBJECT_ID":"2023-014V","EPOCH":"2025-08-20T06:10:09.684192","MEAN_MOTION":14.98320788,"ECCENTRICITY":0.0003747,"INCLINATION":69.9982,"RA_OF_ASC_NODE":232.1728,"ARG_OF_PERICENTER":269.1729,"MEAN_ANOMALY":90.9001,"EPHEMERIS_TYPE":0,"CLASSIFICATION_TYPE":"U","NORAD_CAT_ID":55410,"ELEMENT_SET_NO":999,"REV_AT_EPOCH":14139,"BSTAR":6.9024e-5,"MEAN_MOTION_DOT":7.3e-6,"MEAN_MOTION_DDOT":0},{"OBJECT_NAME":"STARLINK-5605","OBJECT_ID":"2023-014W","EPOCH":"2025-08-20T08:40:03.177696","MEAN_MOTION":14.98329711,"ECCENTRICITY":0.0004008,"INCLINATION":69.999,"RA_OF_ASC_NODE":212.2672,"ARG_OF_PERICENTER":264.5317,"MEAN_ANOMALY":95.5385,"EPHEMERIS_TYPE":0,"CLASSIFICATION_TYPE":"U","NORAD_CAT_ID":55411,"ELEMENT_SET_NO":999,"REV_AT_EPOCH":14095,"BSTAR":1.7452e-5,"MEAN_MOTION_DOT":1.15e-6,"MEAN_MOTION_DDOT":0},{"OBJECT_NAME":"STARLINK-5060","OBJECT_ID":"2023-014Y","EPOCH":"2025-08-20T06:04:09.243264","MEAN_MOTION":14.98336854,"ECCENTRICITY":0.0003495,"INCLINATION":69.9987,"RA_OF_ASC_NODE":232.1573,"ARG_OF_PERICENTER":266.5768,"MEAN_ANOMALY":93.4991,"EPHEMERIS_TYPE":0,"CLASSIFICATION_TYPE":"U","NORAD_CAT_ID":55413,"ELEMENT_SET_NO":999,"REV_AT_EPOCH":14045,"BSTAR":9.5842e-5,"MEAN_MOTION_DOT":1.051e-5,"MEAN_MOTION_DDOT":0},{"OBJECT_NAME":"STARLINK-5620","OBJECT_ID":"2023-014Z","EPOCH":"2025-08-20T06:28:10.623360","MEAN_MOTION":14.98331502,"ECCENTRICITY":0.0003175,"INCLINATION":69.9981,"RA_OF_ASC_NODE":232.2169,"ARG_OF_PERICENTER":266.5853,"MEAN_ANOMALY":93.4943,"EPHEMERIS_TYPE":0,"CLASSIFICATION_TYPE":"U","NORAD_CAT_ID":55414,"ELEMENT_SET_NO":999,"REV_AT_EPOCH":14139,"BSTAR":2.9493e-5,"MEAN_MOTION_DOT":2.59e-6,"MEAN_MOTION_DDOT":0},{"OBJECT_NAME":"STARLINK-5624","OBJECT_ID":"2023-014AB","EPOCH":"2025-08-20T09:52:28.069536","MEAN_MOTION":14.98333572,"ECCENTRICITY":0.0002954,"INCLINATION":69.9981,"RA_OF_ASC_NODE":231.9102,"ARG_OF_PERICENTER":269.197,"MEAN_ANOMALY":90.8851,"EPHEMERIS_TYPE":0,"CLASSIFICATION_TYPE":"U","NORAD_CAT_ID":55416,"ELEMENT_SET_NO":999,"REV_AT_EPOCH":14047,"BSTAR":3.1544e-5,"MEAN_MOTION_DOT":2.83e-6,"MEAN_MOTION_DDOT":0},{"OBJECT_NAME":"STARLINK-5030","OBJECT_ID":"2023-014AD","EPOCH":"2025-08-20T06:52:12.880416","MEAN_MOTION":14.98326389,"ECCENTRICITY":0.0003532,"INCLINATION":69.9978,"RA_OF_ASC_NODE":232.277,"ARG_OF_PERICENTER":266.51,"MEAN_ANOMALY":93.5655,"EPHEMERIS_TYPE":0,"CLASSIFICATION_TYPE":"U","NORAD_CAT_ID":55418,"ELEMENT_SET_NO":999,"REV_AT_EPOCH":14045,"BSTAR":-7.5353e-5,"MEAN_MOTION_DOT":-9.92e-6,"MEAN_MOTION_DDOT":0}]
