STARLINK-5275           
1 55398U 23014H   25232.25682171 -.00000224  00000+0 -10929-4 0  9990
2 55398  69.9993 212.3021 0003443 270.5339  89.5425 14.98337063140946
STARLINK-5276           
1 55399U 23014J   25232.31522772 -.00003299  00000+0 -26872-3 0  9996
2 55399  69.9988 212.1045 0003405 270.2955  89.7814 14.98338485140958
STARLINK-5632           
1 55400U 23014K   25232.33192914  .00000145  00000+0  19966-4 0  9994
2 55400  69.9995 212.1579 0003616 264.8904  95.1843 14.98330441140955
STARLINK-5076           
1 55401U 23014L   25232.25265131 -.00000394  00000+0 -25221-4 0  9997
2 55401  69.9992 212.2883 0003494 266.9068  93.1691 14.98327264140947
STARLINK-5071           
1 55402U 23014M   25232.27351708  .00000050  00000+0  11990-4 0  9991
2 55402  69.9994 212.3614 0003636 266.5951  93.4792 14.98330956140945
STARLINK-5597           
1 55403U 23014N   25231.39311610 -.00000270  00000+0 -14844-4 0  9999
2 55403  69.9993 214.5057 0003694 268.8890  91.1846 14.98330290141757
STARLINK-5607           
1 55404U 23014P   25232.28188220  .00001808  00000+0  15930-3 0  9990
2 55404  69.9988 212.3902 0004247 265.0822  94.9853 14.98320693140941
STARLINK-5623           
1 55405U 23014Q   25232.26934180  .00000115  00000+0  17405-4 0  9993
2 55405  69.9996 212.3462 0003768 267.6911  92.3816 14.98333198140941
STARLINK-5630           
1 55406U 23014R   25232.28604892 -.00000874  00000+0 -65452-4 0  9999
2 55406  69.9990 212.4056 0003023 269.4598  90.6215 14.98329687140943
STARLINK-5019           
1 55407U 23014S   25232.27770494  .00000829  00000+0  77285-4 0  9996
2 55407  69.9994 212.3756 0003594 264.5318  95.5431 14.98336619140940
STARLINK-5092           
1 55408U 23014T   25232.29021201 -.00002786  00000+0 -22571-3 0  9997
2 55408  69.9992 212.4207 0003859 268.8096  91.2621 14.98336951140948
STARLINK-5633           
1 55410U 23014V   25232.25705653  .00000730  00000+0  69024-4 0  9996
2 55410  69.9982 232.1728 0003747 269.1729  90.9001 14.98320788141399
STARLINK-5605           
1 55411U 23014W   25232.36114789  .00000115  00000+0  17452-4 0  9998
2 55411  69.9990 212.2672 0004008 264.5317  95.5385 14.98329711140951
STARLINK-5060           
1 55413U 23014Y   25232.25288476  .00001051  00000+0  95842-4 0  9992
2 55413  69.9987 232.1573 0003495 266.5768  93.4991 14.98336854140452
STARLINK-5620           
1 55414U 23014Z   25232.26956740  .00000259  00000+0  29493-4 0  9998
2 55414  69.9981 232.2169 0003175 266.5853  93.4943 14.98331502141395
STARLINK-5624           
1 55416U 23014AB  25232.41143599  .00000283  00000+0  31544-4 0  9994
2 55416  69.9981 231.9102 0002954 269.1970  90.8851 14.98333572140479
STARLINK-5030           
1 55418U 23014AD  25232.28626019 -.00000992  00000+0 -75353-4 0  9999
2 55418  69.9978 232.2770 0003532 266.5100  93.5655 14.98326389140459
